{
  "norad_id": 63455,
  "name": "STARLINK-33761",
  "history": [
    {
      "epoch": "2026-03-28T06:46:46.326432",
      "apogee_km": 475.9315835119842,
      "perigee_km": 474.5088265562199,
      "latitude_deg": 24.196857633389836,
      "longitude_deg": -167.38185951998457,
      "semi_major_axis_km": 6853.357205034102,
      "eccentricity": 0.0001038,
      "inclination_deg": 53.1583,
      "raan_deg": 55.9361,
      "arg_perigee_deg": 100.0897,
      "mean_anomaly_deg": 260.022,
      "mean_motion_rev_day": 15.3019828
    },
    {
      "epoch": "2026-03-29T04:43:30.875232",
      "apogee_km": 475.9981035283454,
      "perigee_km": 474.3683839743817,
      "latitude_deg": -53.146983796093565,
      "longitude_deg": -79.59902752004564,
      "semi_major_axis_km": 6853.320243751364,
      "eccentricity": 0.0001189,
      "inclination_deg": 53.1584,
      "raan_deg": 51.688,
      "arg_perigee_deg": 71.5843,
      "mean_anomaly_deg": 288.5287,
      "mean_motion_rev_day": 15.30210659
    }
  ]
}